STARLINK-2274_new
1 18599C 21041AY  21326.19601681  .00003082  00000-0  20642-3 0  3263
2 18599  53.0546 317.8489 0001983  54.8601   0.9064 15.06408933    14
STARLINK-2274_old
1 28599C 21041AY  21325.14635571 -.00000154  00000-0 -10348-4 0  3253
2 28599  53.0541 322.5611 0001874  54.7761  65.4758 15.06399717    19
